NORAD_CAT_ID,OBJECT_NAME,OBJECT_TYPE,EPOCH,MEAN_MOTION,ECCENTRICITY,INCLINATION,RA_OF_ASC_NODE,ARG_OF_PERICENTER,MEAN_ANOMALY,BSTAR,MEAN_MOTION_DOT,MEAN_MOTION_DDOT,TLE_LINE0,TLE_LINE1,TLE_LINE2,SEMIMAJOR_AXIS,PERIOD,APOGEE,PERIGEE,DECAYED
55750.0,STARLINK-5573,PAYLOAD,2023-04-02 14:00:01,15.52930576,0.0003333,70.0002,71.666,273.0951,234.7891,-0.016951,-0.00970184,0.0,0 STARLINK-5573,1 55750U 23028K   23092.58334491 -.00970184  00000-0 -16951-1 0  9994,2 55750  70.0002  71.6660 0003333 273.0951 234.7891 15.52930576  1309,6786.312,92.728,410.439,405.915,0.0
55750.0,STARLINK-5573,PAYLOAD,2023-04-02 22:00:00,15.52283451,0.0003339,70.0006,70.7529,264.7218,305.686,-0.017105,-0.00957453,0.0,0 STARLINK-5573,1 55750U 23028K   23092.91667824 -.00957453  00000-0 -17105-1 0  9996,2 55750  70.0006  70.7529 0003339 264.7218 305.6860 15.52283451  1303,6788.198,92.767,412.329,407.796,0.0
55750.0,STARLINK-5573,PAYLOAD,2023-04-03 06:00:00,15.51392664,0.0003452,70.0006,69.8406,271.6532,0.5468,-0.0041295,-0.00237049,0.0,0 STARLINK-5573,1 55750U 23028K   23093.25001157 -.00237049  00000-0 -41295-2 0  9995,2 55750  70.0006  69.8406 0003452 271.6532   0.5468 15.51392664  5448,6790.796,92.82,415.005,410.317,0.0
55750.0,STARLINK-5573,PAYLOAD,2023-04-03 14:00:01,15.51238241,0.0003527,70.0003,68.9289,268.4804,64.7302,-0.00070834,-0.00041577,0.0,0 STARLINK-5573,1 55750U 23028K   23093.58334491 -.00041577  00000-0 -70834-3 0  9992,2 55750  70.0003  68.9289 0003527 268.4804  64.7302 15.51238241  5509,6791.247,92.829,415.507,410.716,0.0
55750.0,STARLINK-5573,PAYLOAD,2023-04-03 22:00:00,15.51247013,0.0003578,70.0006,68.0175,264.7005,129.4114,-0.00027552,-0.00016329,0.0,0 STARLINK-5573,1 55750U 23028K   23093.91667824 -.00016329  00000-0 -27552-3 0  9994,2 55750  70.0006  68.0175 0003578 264.7005 129.4114 15.51247013  1306,6791.221,92.829,415.516,410.656,0.0
55750.0,STARLINK-5573,PAYLOAD,2023-04-04 06:00:00,15.51202413,0.0003539,70.0006,67.1061,271.7667,183.2918,0.00054786,0.00032123,0.0,0 STARLINK-5573,1 55750U 23028K   23094.25001157  .00032123  00000-0  54786-3 0  9990,2 55750  70.0006  67.1061 0003539 271.7667 183.2918 15.51202413  5601,6791.351,92.831,415.62,410.813,0.0
55750.0,STARLINK-5573,PAYLOAD,2023-04-04 14:00:01,15.51248306,0.000344,70.0006,66.1947,270.0725,245.8813,-0.001113,-0.00065065,0.0,0 STARLINK-5573,1 55750U 23028K   23094.58334491 -.00065065  00000-0 -11130-2 0  9994,2 55750  70.0006  66.1947 0003440 270.0725 245.8813 15.51248306  1304,6791.217,92.828,415.418,410.746,0.0
55750.0,STARLINK-5573,PAYLOAD,2023-04-04 22:00:00,15.51251544,0.000342,70.001,65.2836,266.7462,310.1051,-0.00028177,-0.00016697,0.0,0 STARLINK-5573,1 55750U 23028K   23094.91667824 -.00016697  00000-0 -28177-3 0  9997,2 55750  70.0010  65.2836 0003420 266.7462 310.1051 15.51251544  5700,6791.208,92.828,415.395,410.75,0.0
55750.0,STARLINK-5573,PAYLOAD,2023-04-05 14:00:01,15.51247348,0.0003381,70.0007,63.4607,269.8906,68.8128,-0.0012931,-0.00075465,0.0,0 STARLINK-5573,1 55750U 23028K   23095.58334491 -.00075465  00000-0 -12931-2 0  9990,2 55750  70.0007  63.4607 0003381 269.8906  68.8128 15.51247348  1306,6791.22,92.829,415.381,410.789,0.0
55750.0,STARLINK-5573,PAYLOAD,2023-04-05 22:00:00,15.51212633,0.0003429,70.0013,62.5495,264.3636,135.2378,0.00065427,0.00038438,0.0,0 STARLINK-5573,1 55750U 23028K   23095.91667824  .00038438  00000-0  65427-3 0  9992,2 55750  70.0013  62.5495 0003429 264.3636 135.2378 15.51212633  1306,6791.321,92.831,415.515,410.858,0.0
55750.0,STARLINK-5573,PAYLOAD,2023-04-06 06:00:00,15.51230695,0.0003432,70.0015,61.6381,270.4899,190.0339,-6.6412e-05,-4.065e-05,0.0,0 STARLINK-5573,1 55750U 23028K   23096.25001157 -.00004065  00000-0 -66412-4 0  9998,2 55750  70.0015  61.6381 0003432 270.4899 190.0339 15.51230695  5910,6791.269,92.83,415.464,410.803,0.0
55750.0,STARLINK-5573,PAYLOAD,2023-04-06 14:00:01,15.51230871,0.0003436,70.0012,60.7267,268.4269,253.0771,-0.00043629,-0.00025716,0.0,0 STARLINK-5573,1 55750U 23028K   23096.58335648 -.00025716  00000-0 -43629-3 0  9999,2 55750  70.0012  60.7267 0003436 268.4269 253.0771 15.51230871  1307,6791.268,92.83,415.467,410.8,0.0
55750.0,STARLINK-5573,PAYLOAD,2023-04-06 22:00:00,15.51248742,0.000346,70.0016,59.8155,264.315,318.0238,-0.00024634,-0.00014621,0.0,0 STARLINK-5573,1 55750U 23028K   23096.91667824 -.00014621  00000-0 -24634-3 0  9998,2 55750  70.0016  59.8155 0003460 264.3150 318.0238 15.51248742  1303,6791.216,92.828,415.431,410.731,0.0
55750.0,STARLINK-5573,PAYLOAD,2023-04-07 07:52:41,15.51233198,0.0003317,70.0012,58.6908,267.0101,93.0706,5.3504e-05,2.98e-05,0.0,0 STARLINK-5573,1 55750U 23028K   23097.32825266  .00002980  00000-0  53504-4 0  9992,2 55750  70.0012  58.6908 0003317 267.0101  93.0706 15.51233198  6088,6791.261,92.829,415.379,410.874,0.0
55750.0,STARLINK-5573,PAYLOAD,2023-04-08 00:54:07,15.5122528,0.0003304,70.0017,56.7526,263.1344,96.9466,1.2467e-05,5.68e-06,0.0,0 STARLINK-5573,1 55750U 23028K   23098.03758427  .00000568  00000-0  12467-4 0  9998,2 55750  70.0017  56.7526 0003304 263.1344  96.9466 15.51225280  6190,6791.285,92.83,415.393,410.906,0.0
55750.0,STARLINK-5573,PAYLOAD,2023-04-08 07:05:44,15.50976688,0.0002414,70.0001,56.0439,279.2362,80.8551,-0.0009314,-0.0005402,0.0,0 STARLINK-5573,1 55750U 23028K   23098.29565867 -.00054020  00000-0 -93140-3 0  9990,2 55750  70.0001  56.0439 0002414 279.2362  80.8551 15.50976688  6234,6792.01,92.845,415.515,412.236,0.0
55750.0,STARLINK-5573,PAYLOAD,2023-04-09 03:14:44,15.48838952,0.0003836,70.0016,53.7598,15.2777,344.8523,-0.009116,-0.00464554,0.0,0 STARLINK-5573,1 55750U 23028K   23099.13524176 -.00464554  00000-0 -91160-2 0  9998,2 55750  70.0016  53.7598 0003836  15.2777 344.8523 15.48838952  6361,6798.258,92.973,422.731,417.516,0.0
55750.0,STARLINK-5573,PAYLOAD,2023-04-09 14:00:01,15.48176316,0.0003543,70.0021,52.5352,268.756,72.4237,-0.018638,-0.00905873,0.0,0 STARLINK-5573,1 55750U 23028K   23099.58334491 -.00905873  00000-0 -18638-1 0  9998,2 55750  70.0021  52.5352 0003543 268.7560  72.4237 15.48176316  6424,6800.198,93.013,424.472,419.654,0.0
55750.0,STARLINK-5573,PAYLOAD,2023-04-09 22:00:00,15.47569475,0.000357,70.0023,51.6287,268.6301,129.4075,-0.020476,-0.00968697,0.0,0 STARLINK-5573,1 55750U 23028K   23099.91667824 -.00968697  00000-0 -20476-1 0  9990,2 55750  70.0023  51.6287 0003570 268.6301 129.4075 15.47569475  1301,6801.976,93.049,426.269,421.412,0.0
55750.0,STARLINK-5573,PAYLOAD,2023-04-10 14:00:01,15.46214206,0.0003295,70.0021,49.818,270.1786,239.284,-0.019739,-0.00896801,0.0,0 STARLINK-5573,1 55750U 23028K   23100.58334491 -.00896801  00000-0 -19739-1 0  9994,2 55750  70.0021  49.8180 0003295 270.1786 239.2840 15.46214206  6582,6805.95,93.131,430.057,425.572,0.0
55750.0,STARLINK-5573,PAYLOAD,2023-04-10 22:00:00,15.45614055,0.0003332,70.0023,48.9144,266.6012,297.3708,-0.021982,-0.0097151,0.0,0 STARLINK-5573,1 55750U 23028K   23100.91667824 -.00971510  00000-0 -21982-1 0  9994,2 55750  70.0023  48.9144 0003332 266.6012 297.3708 15.45614055  1306,6807.711,93.167,431.845,427.308,0.0
55750.0,STARLINK-5573,PAYLOAD,2023-04-11 06:00:00,15.44906142,0.0003366,70.002,48.0112,273.3549,344.3802,-0.020064,-0.0087341,0.0,0 STARLINK-5573,1 55750U 23028K   23101.25001157 -.00873410  00000-0 -20064-1 0  9993,2 55750  70.0020  48.0112 0003366 273.3549 344.3802 15.44906142  6680,6809.791,93.21,433.948,429.364,0.0
55750.0,STARLINK-5573,PAYLOAD,2023-04-11 12:00:00,15.4445483,0.0003305,70.0017,47.3344,272.8082,294.7184,-0.022488,-0.00956509,0.0,0 STARLINK-5573,1 55750U 23028K   23101.50001157 -.00956509  00000-0 -22488-1 0  9994,2 55750  70.0017  47.3344 0003305 272.8082 294.7184 15.44454830  6722,6811.117,93.237,435.233,430.731,0.0
55750.0,STARLINK-5573,PAYLOAD,2023-04-12 06:00:00,15.42952552,0.000336,70.0021,45.3069,275.7516,138.5314,-0.021614,-0.00879932,0.0,0 STARLINK-5573,1 55750U 23028K   23102.25001157 -.00879932  00000-0 -21614-1 0  9991,2 55750  70.0021  45.3069 0003360 275.7516 138.5314 15.42952552  6849,6815.538,93.328,439.693,435.113,0.0
55750.0,STARLINK-5573,PAYLOAD,2023-04-12 14:00:01,15.42283008,0.0003212,70.0017,44.4073,270.3753,194.5354,-0.021672,-0.00863885,0.0,0 STARLINK-5573,1 55750U 23028K   23102.58334491 -.00863885  00000-0 -21672-1 0  9991,2 55750  70.0017  44.4073 0003212 270.3753 194.5354 15.42283008  1304,6817.51,93.368,441.565,437.185,0.0
55750.0,STARLINK-5573,PAYLOAD,2023-04-12 20:00:01,15.41858765,0.0003318,70.0018,43.7332,267.2327,145.1026,-0.024544,-0.00956257,0.0,0 STARLINK-5573,1 55750U 23028K   23102.83334491 -.00956257  00000-0 -24544-1 0  9996,2 55750  70.0018  43.7332 0003318 267.2327 145.1026 15.41858765  6933,6818.761,93.394,442.888,438.363,0.0
55750.0,STARLINK-5573,PAYLOAD,2023-04-13 12:00:00,15.40524,0.0003085,70.0015,41.9377,270.9323,239.1334,-0.024856,-0.00928595,0.0,0 STARLINK-5573,1 55750U 23028K   23103.50001157 -.00928595  00000-0 -24856-1 0  9991,2 55750  70.0015  41.9377 0003085 270.9323 239.1334 15.40524000  1300,6822.699,93.475,446.669,442.459,0.0
55750.0,STARLINK-5573,PAYLOAD,2023-04-13 20:00:01,15.39903584,0.0003141,70.0019,41.0416,264.2733,293.4621,-0.026276,-0.00958931,0.0,0 STARLINK-5573,1 55750U 23028K   23103.83334491 -.00958931  00000-0 -26276-1 0  9992,2 55750  70.0019  41.0416 0003141 264.2733 293.4621 15.39903584  7082,6824.531,93.512,448.54,444.253,0.0
55750.0,STARLINK-5573,PAYLOAD,2023-04-14 14:00:01,15.38366153,0.000323,70.0018,39.0279,267.521,124.7339,-0.024369,-0.00853935,0.0,0 STARLINK-5573,1 55750U 23028K   23104.58335648 -.00853935  00000-0 -24369-1 0  9999,2 55750  70.0018  39.0279 0003230 267.5210 124.7339 15.38366153  7200,6829.077,93.606,453.148,448.737,0.0
55750.0,STARLINK-5573,PAYLOAD,2023-04-15 14:00:01,15.36409603,0.0003087,70.002,36.3503,266.8154,258.4532,-0.02584,-0.00849983,0.0,0 STARLINK-5573,1 55750U 23028K   23105.58334491 -.00849983  00000-0 -25840-1 0  9998,2 55750  70.0020  36.3503 0003087 266.8154 258.4532 15.36409603  1303,6834.874,93.725,458.849,454.629,0.0
